{
  "norad_id": 65748,
  "name": "STARLINK-35265",
  "history": [
    {
      "epoch": "2026-03-28T16:51:19.244448",
      "apogee_km": 475.6948391534179,
      "perigee_km": 474.72056767038157,
      "latitude_deg": -10.04736685659836,
      "longitude_deg": 102.22138271993026,
      "semi_major_axis_km": 6853.3447034119,
      "eccentricity": 7.108e-05,
      "inclination_deg": 53.1587,
      "raan_deg": 244.6398,
      "arg_perigee_deg": 76.7143,
      "mean_anomaly_deg": 283.3937,
      "mean_motion_rev_day": 15.30202467
    },
    {
      "epoch": "2026-03-29T03:49:41.700288",
      "apogee_km": 475.7267260877352,
      "perigee_km": 474.6192311951854,
      "latitude_deg": 39.652564494753264,
      "longitude_deg": 146.11300032003783,
      "semi_major_axis_km": 6853.30997864146,
      "eccentricity": 8.08e-05,
      "inclination_deg": 53.1584,
      "raan_deg": 242.5154,
      "arg_perigee_deg": 78.3727,
      "mean_anomaly_deg": 281.7364,
      "mean_motion_rev_day": 15.30214097
    }
  ]
}